#dP2021  6  4 12  0  0.00000000      96 __u+U ITR00 EXT  IAC
## 2160 475200.00000000   900.00000000 59369 0.5000000000000
+  116   C06C07C08C09C10C11C12C13C14C16C19C20C21C22C23C24C25
+        C26C27C28C29C30C32C33C34C35C36C37C38C39C40C41C42C43
+        C44C45C46E01E02E03E04E05E07E08E09E11E12E13E14E15E18
+        E19E21E24E25E26E27E30E31E33E36G01G02G03G04G05G06G07
+        G08G09G10G12G13G14G15G16G17G18G19G20G21G22G23G24G25
+        G26G27G28G29G30G31G32J01J02J03R01R02R03R04R05R07R08
+        R09R11R12R13R14R15R16R17R18R19R20R21R22R24  0  0  0
++        10  8 12 10  8  8  7 16  9  8  8  8  8  8  8  9  8
++         8  8  9  9 10  8  8  7  8 10  8 10 10 10  8  7  8
++         8  9  8  7  6  8  7  9  7  8  7  7  9  7  7  8  7
++         9  7  8  6  8  7  7  7  9  8  6  8  7  7  7  8  7
++         7  8  7  9  7  6  7  9  7  8  8  8  8  8  8  8  6
++         7  7  7  7  6  8  8 11 13 10  7  7  8  8  7  7  9
++        11  7  7  7  8  8  9  9  9  8  8  8  8  8  0  0  0
%c M  cc GPS ccc cccc cccc cccc cccc ccccc ccccc ccccc ccccc
%c cc cc ccc ccc cccc cccc cccc cccc ccccc ccccc ccccc ccccc
%f  0.0000000  0.000000000  0.00000000000  0.000000000000000
%f  0.0000000  0.000000000  0.00000000000  0.000000000000000
%i    0    0    0    0      0      0      0      0         0
%i    0    0    0    0      0      0      0      0         0
/* IAC                                ULTRA-RAPID PREDICTION
/* S/V CLOCKS ARE ALIGNED TO GNSS TIME                      
/* G:C1WC2W R:C1PC2P E:C1XC5X C:C2IC6I J:C1CC2S             
/* PCV:IGS14_2148 OL/AL:FES2004  NONE     YN ORB:CoN CLK:CoN
*  2021 06 05  6  0  0.00000000
PC06 -16114.267014  20169.800903 -32938.628731    466.118391
PC07 -22008.387991  34958.999455   7157.148931    106.963550
PC08  -5596.700609  33742.394036  25012.608487   -892.543642
PC09   1007.922910  25403.209409 -33266.300943    471.686567
PC10  -9087.261336  35946.730948  19865.622659    -33.709397
PC11  18818.918686  16497.222860  12441.794660    381.508835
PC12    606.517075  16281.989549  22685.227879    855.844036
PC13   2552.695642  39690.383452  14461.617077    287.999143
PC14   8659.703202  13439.853635 -22839.755792    924.978112
PC16 -12455.035232  21318.586714 -34071.782192   -879.457826
PC19 -16832.005635  -5478.601278  21598.300184    860.892740
PC20   -632.244964 -18334.278671  21058.971476   -888.431804
PC21 -16813.961016  20816.528801  -7848.062134   -936.760085
PC22 -23800.428466  10928.930122   9595.495174   -951.721569
PC23  15682.333453  -4536.655610  22640.174140   -926.127878
PC24   5091.274089  27423.774811   1159.517299   -879.473225
PC25  15435.699579  15361.490025  17456.893819   -905.979062
PC26  -6260.156816  23095.828737 -14389.918560    897.169872
PC27   9974.989449 -12881.515994 -22677.200397    543.189692
PC28  24515.223549   -146.616141 -13338.415355    -66.050369
PC29 -25059.542709 -11683.524992  -3802.116131    401.850189
PC30 -10452.344686 -17639.402164 -18949.140706    469.567170
PC32  16649.599519 -20979.891036   7882.655651   -927.049898
PC33  16854.036677   5417.451145 -21566.048202   -936.550356
PC34  11143.660264  17654.427343  18491.966246   -657.529014
PC35 -24690.059795    753.354306  13007.930763   -247.965934
PC36 -14951.832796 -16067.362810 -17209.621146   -726.933929
PC37   7371.119211 -22300.379619  15079.650844   -880.096398
PC38  -4109.803229  36202.351231  21338.047355    153.270681
PC39  -8890.829661  22727.674151 -34373.416443     31.585718
PC40 -18901.349930  33246.926855  17609.344764    167.911742
PC41  23769.669346 -10819.247302  -9780.791682   -945.886988
PC42    -73.520370  18685.567719 -20672.275584   -913.427748
PC43  24774.417702  12083.934009   4261.828692   -762.142224
PC44  -9841.856116  13193.172433  22526.327930    223.598270
PC45 -15516.094726   4706.631424 -22706.146717    458.881433
PC46  -5781.960683 -27198.881141  -2142.496729    238.757522
PE01  -3906.707646 -24053.814530 -16801.155380  -1122.634789
PE02   3993.411732  23982.754902  16889.410689    223.935096
PE03  10461.959070  14767.686617 -23420.006727   -438.549648
PE04 -26535.173463  -3603.067380  12621.447613   -785.785570
PE05 -12041.575581  17450.848992 -20645.074579   -275.429351
PE07  27260.480838  -9944.678895   5890.011302   -546.121481
PE08  26708.177286   3150.215990 -12375.165940   5990.982624
PE09 -27137.613499  10121.902624  -6052.474376   5644.204569
PE11 -17126.623923   4220.851904  23761.249009   5891.167399
PE12 -23171.679429 -14507.820582  11369.304586   5175.750185
PE13  17312.994780  -3840.225782 -23699.432867    417.331213
PE14  13248.349813  13756.041163  15953.932171  -1455.309591
PE15  23188.390717  14404.680695 -11434.614410    810.506460
PE18  -5571.274275 -20010.628956 -23787.260791  -1593.668547
PE19  -7919.384647 -15483.727769  23963.626026    294.433328
PE21   9295.454258 -28104.065008     23.651986   -668.894260
PE24 -17955.322232  15149.263226 -18030.389068   -937.906020
PE25  -9417.975817  28061.237733   -216.454307   -535.971313
PE26    695.495414 -20342.854696 -21493.322732   1729.525874
PE27  17704.678746 -16025.874077  17490.193256    -47.525506
PE30  15279.670024   6558.429989  24480.119518   2888.848638
PE31 -15641.753788  -5378.437925 -24540.367829   -481.886029
PE33 -15403.477217 -24134.795460  -7534.265885   -469.378718
PE36  -1269.000357  19773.660252  21984.343859   -216.667529
PG01 -18157.051018  -7807.094315  17648.419650    668.147678
PG02  13352.900427  22781.769106   3187.081828   -609.920645
PG03 -17220.158738   2907.072230  19890.153459   -183.265761
PG04 -26556.250056  -1085.389177    912.063788   -198.853280
PG05  10802.033976  11884.254743 -21285.357720    -44.016325
PG06   4213.507143  23113.244504  12389.112036     23.254387
PG07 -13366.197970   7338.695705 -21396.063797    170.021839
PG08 -23647.065882  -6491.984992 -10591.487376    -23.902024
PG09 -23569.773344   7662.252225  -9644.371646   -349.488149
PG10  11237.910524 -23793.713636   2403.728698   -136.061347
PG12  16663.429709   -164.530195  20395.597359    -50.681556
PG13  16903.207185  13048.703217 -16013.741411    140.874293
PG14 -12522.441555  23302.167562   2159.493278     74.862995
PG15  24317.195484   4624.020448 -10452.957882   -144.553310
PG16  -5527.359640 -16387.532412 -20269.836251   -336.305847
PG17 -11371.029754  13196.278386  20477.059887    453.544783
PG18  10850.624452 -10978.134408 -21618.889531    348.098933
PG19  -1611.603204  14566.482636  21863.937945      9.257936
PG20  12929.059213   9613.923424 -21143.381578    521.483753
PG21 -20080.449251 -13320.670607  12410.681953    122.943260
PG22 -14067.687609  -7392.783846  21477.905167   -596.474347
PG23  16611.623321 -18766.931142  -8734.349496    100.148572
PG24  19994.734494  11388.226555  13352.185435    116.736239
PG25  18220.329068 -12916.654639  13901.309399    150.168176
PG26    801.824781 -22985.067890 -13103.771020     94.388278
PG27 -14872.193918 -12321.164824 -18572.982732   -141.958924
PG28  -8785.193396  23700.284756   9009.576355    559.857563
PG29  24391.731439  -4906.510121  -9418.272672   -358.925441
PG30  -3987.756509  19283.358772 -17651.971386   -435.069739
PG31  -5860.307003 -23848.001119   9421.684288   -121.290004
PG32   7985.553153 -14758.284819  20663.362407     19.505873
PJ01 -36379.429314  20064.593105  -2380.531878   -390.293741
PJ02 -22424.494771  31579.628302 -11957.915906     -0.128351
PJ03 -27748.922267  22625.613716  27399.207961     -7.226557
PR01 -22597.860873   8248.385729   8465.387002     80.447114
PR02 -16473.285952  15314.983148 -12040.073424    481.219533
PR03   -324.937972  12275.403779 -22316.920687     37.160012
PR04  15682.585662   2149.525302 -19968.648050     89.901988
PR05  22980.221047  -8968.814383  -6435.668587     73.004401
PR07   -453.769549 -11970.110769  22557.214865    -42.394552
PR08 -15792.978082  -2221.383200  19973.364174    -59.362475
PR09   5702.440845 -22280.240167  11131.499613     -3.641959
PR11  -9223.677565 -13215.091526 -19766.103951     -9.383168
PR12 -10683.856343   6628.448455 -22170.037008    234.626448
PR13  -5834.552851  21842.060654 -11824.070370    -55.785084
PR14   2601.474902  24571.904211   6309.910025     65.004939
PR15   9285.604474  12822.682720  20019.744270    103.437217
PR16  10560.803867  -7866.870050  21800.935818    -15.949794
PR17  11178.510274  15779.195859  16657.214165    429.985022
PR18  21284.435839  13950.397296   1258.666156     78.960221
PR19  20358.050710   5856.463353 -14217.429342   -146.499050
PR20   6324.819783  -8216.155043 -23303.856309    -50.337896
PR21 -12137.405082 -15918.393783 -15801.592568   -214.186222
PR22 -21561.464464 -13726.821074   -203.413461   -116.137259
PR24  -5803.701824   9137.863649  23106.909167     45.322313
EOF
